{"fetched_at":"2026-03-29T16:36:15Z","count":15609,"tles":[{"name":"STARLINK-11594 [DTC]","line1":"1 64320U 25124D   26087.91329730  .00250000  00000+0  18940-2 0  9996","line2":"2 64320  43.0000 273.7118 0001621 265.3037  94.7645 15.70836680 45850","category":"Starlink"}]}